LANDSAT 1 (ERTS 1)      
1 06126U 72058A   26278.69150403 -.00000248  00000+0 -14225-3 0  9992
2 06126  99.3288 310.2468 0007483 318.2621  41.7969 13.97845459763394
LANDSAT 2               
1 07615U 75004A   26278.88799790  .00000069  00000+0  81232-4 0  9991
2 07615  99.0546 232.2686 0008991  13.3173 346.8225 13.96985810634584
LANDSAT 3               
1 10702U 78026A   26278.88113921  .00000229  00000+0  19595-3 0  9995
2 10702  99.0823 232.6303 0014201 197.4355 223.9516 13.97005580476939
LANDSAT 5               
1 14780U 84021A   26278.74968361  .00001816  00000+0  12664-3 0  9991
2 14780  98.0671 202.8304 0069352 105.0148 255.8766 15.04865520808018
LANDSAT 7               
1 25682U 99020A   26278.96306984  .00000248  00000+0  55877-4 0  9992
2 25682  97.8649 277.5626 0001756  91.4691 297.9883 14.63992774462057
LANDSAT 8               
1 39084U 13008A   26278.92660379  .00000169  00000+0  47528-4 0  9998
2 39084  98.2194 347.6818 0001312  94.5046 265.6302 14.57108643714028
LANDSAT 9               
1 49260U 21088A   26278.75498989  .00000173  00000+0  48480-4 0  9992
2 49260  98.2174 347.5300 0001427  89.1170 271.0192 14.57107192267101
