SENTINEL-1A             
1 39634U 14016A   26278.26540301  .00000279  00000+0  67952-4 0  9993
2 39634  98.1605 284.0682 0001488  85.5491 274.5879 14.59810552666076
SENTINEL-2A             
1 40697U 15028A   26278.28458608 -.00000205  00000+0 -61411-4 0  9993
2 40697  98.5647 351.5308 0001079  92.2778 267.8529 14.30818859589473
SENTINEL-3A             
1 41335U 16011A   26278.25031698  .00000040  00000+0  34771-4 0  9993
2 41335  98.6254 344.0420 0001283 104.3491 255.7832 14.26738393553758
SENTINEL-1B             
1 41456U 16025A   26278.30786811  .00000615  00000+0  55339-4 0  9993
2 41456  98.0790 343.2592 0014888 133.9678 226.2775 14.99482093560280
SENTINEL-2B             
1 42063U 17013A   26278.27743691 -.00000237  00000+0 -73654-4 0  9993
2 42063  98.5691 351.4698 0001159  92.2978 267.8337 14.30817292500383
SENTINEL-5P             
1 42969U 17064A   26278.30039729  .00000034  00000+0  37194-4 0  9990
2 42969  98.8017 219.6838 0000993  76.9966 283.1321 14.19534171465186
SENTINEL-3B             
1 43437U 18039A   26278.15331250  .00000039  00000+0  34126-4 0  9998
2 43437  98.6251 344.0955 0000986  67.4452 292.6833 14.26736334439801
SENTINEL-6A             
1 46984U 20086A   26278.25063277 -.00000036  00000+0  10714-3 0  9999
2 46984  66.0392 266.4462 0007902 269.2353  90.7757 12.80930001274425
SENTINEL-2C             
1 60989U 24157A   26278.17256598  .00000053  00000+0  36850-4 0  9992
2 60989  98.5702 351.3729 0001139  81.7438 278.3875 14.30817373108714
SENTINEL-1C             
1 62261U 24235A   26278.32692131 -.00000032  00000+0  28349-5 0  9991
2 62261  98.1826 284.0718 0001349  89.7833 270.3521 14.59202138 97470
SENTINEL-1D             
1 66315U 25251A   26278.01849497 -.00000171  00000+0 -26604-4 0  9995
2 66315  98.1825 283.8219 0001227  89.5093 270.6247 14.59197452 48743
SENTINEL-6B             
1 66514U 25264A   26278.25098487 -.00000037  00000+0  10322-3 0  9990
2 66514  66.0392 266.5716 0007854 268.1732  91.8384 12.80929843 41268
