LANDSAT 1 (ERTS 1)      
1 06126U 72058A   26280.05147435 -.00000258  00000+0 -14984-3 0  9999
2 06126  99.3285 311.6281 0007429 313.9773  46.0776 13.97844909763583
LANDSAT 2               
1 07615U 75004A   26280.46367424 -.00000035  00000+0  61631-5 0  9999
2 07615  99.0550 233.8204 0008895   8.8494 351.2824 13.96986020634804
LANDSAT 3               
1 10702U 78026A   26280.46606186  .00000275  00000+0  22860-3 0  9992
2 10702  99.0827 234.1960 0014240 192.9077 275.0601 13.97006468477157
LANDSAT 5               
1 14780U 84021A   26280.41199289  .00002121  00000+0  14704-3 0  9990
2 14780  98.0673 204.5665 0069410  99.5529 261.3549 15.04872510808269
LANDSAT 7               
1 25682U 99020A   26280.62396397  .00000218  00000+0  50053-4 0  9993
2 25682  97.8649 279.1486 0001761  90.3845  47.3501 14.63993564462292
LANDSAT 8               
1 39084U 13008A   26280.57467548  .00000158  00000+0  45045-4 0  9995
2 39084  98.2193 349.3079 0001305  94.7849 265.3499 14.57109285714263
LANDSAT 9               
1 49260U 21088A   26280.19705414  .00000193  00000+0  52816-4 0  9997
2 49260  98.2173 348.9525 0001402  88.6281 271.5079 14.57107910267314
