SENTINEL-1A             
1 39634U 14016A   26282.30940163  .00000152  00000+0  41297-4 0  9997
2 39634  98.1597 288.0475 0001445  83.0714 277.0650 14.59835758666669
SENTINEL-2A             
1 40697U 15028A   26282.27059367 -.00000129  00000+0 -32545-4 0  9997
2 40697  98.5654 355.4579 0001036  91.1182 269.0120 14.30819809590046
SENTINEL-3A             
1 41335U 16011A   26282.24771478  .00000053  00000+0  39802-4 0  9998
2 41335  98.6250 347.9813 0001295 103.1328 256.9997 14.26739079554322
SENTINEL-1B             
1 41456U 16025A   26282.24497682  .00000699  00000+0  62126-4 0  9990
2 41456  98.0792 347.3417 0015197 122.0808 238.1892 14.99491002560878
SENTINEL-2B             
1 42063U 17013A   26282.33337821 -.00000004  00000+0  15069-4 0  9996
2 42063  98.5698 355.4679 0001135  90.0510 270.0803 14.30818672500966
SENTINEL-5P             
1 42969U 17064A   26280.83786516  .00000014  00000+0  27859-4 0  9999
2 42969  98.8021 222.2058 0000953  77.8485 282.2798 14.19534530465544
SENTINEL-3B             
1 43437U 18039A   26282.15071563  .00000065  00000+0  44829-4 0  9991
2 43437  98.6247 348.0346 0000869  68.3640 291.7633 14.26737145440376
SENTINEL-6A             
1 46984U 20086A   26281.92020101 -.00000060  00000+0  44095-5 0  9994
2 46984  66.0395 258.8236 0007880 269.3981  90.6131 12.80930126274899
SENTINEL-2C             
1 60989U 24157A   26282.15857993  .00000066  00000+0  41982-4 0  9997
2 60989  98.5699 355.3021 0001087  81.9565 278.1741 14.30818172109284
SENTINEL-1C             
1 62261U 24235A   26282.30405896  .00000170  00000+0  45797-4 0  9991
2 62261  98.1821 287.9919 0001349  89.4437 270.6918 14.59199899 98054
SENTINEL-1D             
1 66315U 25251A   26282.26992381  .00000058  00000+0  22098-4 0  9993
2 66315  98.1822 288.0121 0001303  90.6381 269.4968 14.59199083 49364
SENTINEL-6B             
1 66514U 25264A   26281.92055342 -.00000054  00000+0  28633-4 0  9995
2 66514  66.0395 258.9491 0007829 268.3769  91.6350 12.80930039 41732
